ORBCOMM FM115           
1 41186U 15081H   25097.88616463  .00001878  00000+0  40254-3 0  9991
2 41186  46.9995  13.8725 0000261  31.0413 329.0490 14.62328568497485
ORBCOMM FM108           
1 41187U 15081J   25097.93408759  .00001378  00000+0  33393-3 0  9996
2 41187  47.0044  78.7068 0003186 335.2331  24.8401 14.57968368496540
ORBCOMM FM117           
1 41188U 15081K   25097.96895773  .00001421  00000+0  34309-3 0  9993
2 41188  47.0008  77.3287 0003548 343.9605  16.1167 14.57974910496599
ORBCOMM FM116           
1 41189U 15081L   25097.89172881  .00001776  00000+0  41921-3 0  9995
2 41189  47.0004 167.5644 0000337  56.7513 303.3405 14.58004051495399
